1 57371U 23099AV  25334.95002257 -.00000237  00000+0 -24577-5 0  9996
2 57371  43.0042  52.4577 0001186 275.9069  84.1638 15.02535628131419
